[{"OBJECT_NAME":"STARLINK-32009","OBJECT_ID":"2024-117P","EPOCH":"2026-03-09T07:21:36.468576","MEAN_MOTION":15.30189358,"ECCENTRICITY":0.00013353,"INCLINATION":53.1612,"RA_OF_ASC_NODE":39.1754,"ARG_OF_PERICENTER":85.846,"MEAN_ANOMALY":274.2694,"EPHEMERIS_TYPE":0,"CLASSIFICATION_TYPE":"U","NORAD_CAT_ID":60104,"ELEMENT_SET_NO":999,"REV_AT_EPOCH":9682,"BSTAR":-3.0997788e-5,"MEAN_MOTION_DOT":-1.277e-5,"MEAN_MOTION_DDOT":0},{"OBJECT_NAME":"TEVEL2-4","OBJECT_ID":"2025-052D","EPOCH":"2026-03-09T16:39:37.129536","MEAN_MOTION":15.30925813,"ECCENTRICITY":0.0004733,"INCLINATION":97.4009,"RA_OF_ASC_NODE":325.1237,"ARG_OF_PERICENTER":95.3468,"MEAN_ANOMALY":264.8313,"EPHEMERIS_TYPE":0,"CLASSIFICATION_TYPE":"U","NORAD_CAT_ID":63213,"ELEMENT_SET_NO":999,"REV_AT_EPOCH":5487,"BSTAR":0.00070362503,"MEAN_MOTION_DOT":0.0002099,"MEAN_MOTION_DDOT":0}]
